[{"OBJECT_NAME":"STARLINK-31714","OBJECT_ID":"2024-062P","EPOCH":"2026-03-09T22:06:10.654560","MEAN_MOTION":15.30176373,"ECCENTRICITY":0.00017031,"INCLINATION":53.1595,"RA_OF_ASC_NODE":254.8118,"ARG_OF_PERICENTER":103.0264,"MEAN_ANOMALY":257.0927,"EPHEMERIS_TYPE":0,"CLASSIFICATION_TYPE":"U","NORAD_CAT_ID":59387,"ELEMENT_SET_NO":999,"REV_AT_EPOCH":10965,"BSTAR":5.022443e-6,"MEAN_MOTION_DOT":-2.11e-6,"MEAN_MOTION_DDOT":0},{"OBJECT_NAME":"COSMOS 2251 DEB","OBJECT_ID":"1993-036BTX","EPOCH":"2026-02-28T17:34:44.973408","MEAN_MOTION":15.25753352,"ECCENTRICITY":0.00216382,"INCLINATION":73.9681,"RA_OF_ASC_NODE":229.3494,"ARG_OF_PERICENTER":13.6287,"MEAN_ANOMALY":346.5492,"EPHEMERIS_TYPE":0,"CLASSIFICATION_TYPE":"U","NORAD_CAT_ID":38487,"ELEMENT_SET_NO":999,"REV_AT_EPOCH":67986,"BSTAR":0.0024802785,"MEAN_MOTION_DOT":0.00064261,"MEAN_MOTION_DDOT":0}]
